ONEWEB-0311             
1 49097U 21075Y   24210.50680889 -.00000002  00000+0 -37138-4 0  9996
2 49097  87.9193 142.9951 0002439  87.7816 272.3595 13.17648277143933
ONEWEB-0312             
1 49098U 21075Z   24210.52135741  .00000060  00000+0  12205-3 0  9990
2 49098  87.9191 143.0239 0002059  93.8820 266.2547 13.17649842143897
ONEWEB-0314             
1 49100U 21075AB  24210.18852391  .00000033  00000+0  52709-4 0  9997
2 49100  87.9190 143.0487 0002102  92.2283 267.9089 13.17649174143820
ONEWEB-0315             
1 49101U 21075AC  24210.48281946 -.00000250  00000+0 -73110-3 0  9994
2 49101  87.8948 127.8169 0002067  74.8560 285.2797 13.12444067145833
ONEWEB-0317             
1 49103U 21075AE  24210.17139893  .00000158  00000+0  40474-3 0  9997
2 49103  87.8924 127.8875 0001649  70.4721 289.6585 13.12440856145801
